CCSDS_OMM_VERS = 2.0
CREATION_DATE  = 
ORIGINATOR     = 

OBJECT_NAME    = COSMOS 1933
OBJECT_ID      = 1988-020A
CENTER_NAME    = EARTH
REF_FRAME      = TEME
TIME_SYSTEM    = UTC
MEAN_ELEMENT_THEORY = SGP/SGP4

EPOCH          = 2025-12-29T08:57:29.419488
MEAN_MOTION    = 15.17260064
ECCENTRICITY   = .00065009
INCLINATION    = 82.5135
RA_OF_ASC_NODE = 320.4426
ARG_OF_PERICENTER = 85.9656
MEAN_ANOMALY   = 274.2321

EPHEMERIS_TYPE = 0
CLASSIFICATION_TYPE = U
NORAD_CAT_ID   = 18958
ELEMENT_SET_NO = 999
REV_AT_EPOCH   = 3956
BSTAR          = .36520856E-3
MEAN_MOTION_DOT = .7302E-4
MEAN_MOTION_DDOT = 0

CCSDS_OMM_VERS = 2.0
CREATION_DATE  = 
ORIGINATOR     = 

OBJECT_NAME    = SL-3 R/B
OBJECT_ID      = 1988-032B
CENTER_NAME    = EARTH
REF_FRAME      = TEME
TIME_SYSTEM    = UTC
MEAN_ELEMENT_THEORY = SGP/SGP4

EPOCH          = 2025-12-29T20:37:12.833184
MEAN_MOTION    = 15.18929118
ECCENTRICITY   = .0028266
INCLINATION    = 97.5093
RA_OF_ASC_NODE = 342.4645
ARG_OF_PERICENTER = 115.4858
MEAN_ANOMALY   = 244.9304

EPHEMERIS_TYPE = 0
CLASSIFICATION_TYPE = U
NORAD_CAT_ID   = 19046
ELEMENT_SET_NO = 999
REV_AT_EPOCH   = 4150
BSTAR          = .37123E-3
MEAN_MOTION_DOT = .7766E-4
MEAN_MOTION_DDOT = 0

CCSDS_OMM_VERS = 2.0
CREATION_DATE  = 
ORIGINATOR     = 

OBJECT_NAME    = SL-16 R/B
OBJECT_ID      = 1988-039B
CENTER_NAME    = EARTH
REF_FRAME      = TEME
TIME_SYSTEM    = UTC
MEAN_ELEMENT_THEORY = SGP/SGP4

EPOCH          = 2025-12-29T19:10:49.355040
MEAN_MOTION    = 14.19599993
ECCENTRICITY   = .0019534
INCLINATION    = 71.0124
RA_OF_ASC_NODE = 216.3284
ARG_OF_PERICENTER = 87.0742
MEAN_ANOMALY   = 273.2618

EPHEMERIS_TYPE = 0
CLASSIFICATION_TYPE = U
NORAD_CAT_ID   = 19120
ELEMENT_SET_NO = 999
REV_AT_EPOCH   = 94846
BSTAR          = .29407E-4
MEAN_MOTION_DOT = .14E-6
MEAN_MOTION_DDOT = 0

CCSDS_OMM_VERS = 2.0
CREATION_DATE  = 
ORIGINATOR     = 

OBJECT_NAME    = COSMOS 1953
OBJECT_ID      = 1988-050A
CENTER_NAME    = EARTH
REF_FRAME      = TEME
TIME_SYSTEM    = UTC
MEAN_ELEMENT_THEORY = SGP/SGP4

EPOCH          = 2025-12-29T08:21:58.699584
MEAN_MOTION    = 15.27141359
ECCENTRICITY   = .00125356
INCLINATION    = 82.5080
RA_OF_ASC_NODE = 228.9139
ARG_OF_PERICENTER = 18.6006
MEAN_ANOMALY   = 341.5688

EPHEMERIS_TYPE = 0
CLASSIFICATION_TYPE = U
NORAD_CAT_ID   = 19210
ELEMENT_SET_NO = 999
REV_AT_EPOCH   = 2704
BSTAR          = .30113736E-3
MEAN_MOTION_DOT = .8063E-4
MEAN_MOTION_DDOT = 0

CCSDS_OMM_VERS = 2.0
CREATION_DATE  = 
ORIGINATOR     = 

OBJECT_NAME    = SL-8 R/B
OBJECT_ID      = 1988-053B
CENTER_NAME    = EARTH
REF_FRAME      = TEME
TIME_SYSTEM    = UTC
MEAN_ELEMENT_THEORY = SGP/SGP4

EPOCH          = 2025-12-29T18:48:42.536160
MEAN_MOTION    = 14.38870599
ECCENTRICITY   = .0018991
INCLINATION    = 74.0463
RA_OF_ASC_NODE = 241.3079
ARG_OF_PERICENTER = 79.0080
MEAN_ANOMALY   = 346.5649

EPHEMERIS_TYPE = 0
CLASSIFICATION_TYPE = U
NORAD_CAT_ID   = 19257
ELEMENT_SET_NO = 999
REV_AT_EPOCH   = 96654
BSTAR          = .13315E-3
MEAN_MOTION_DOT = .385E-5
MEAN_MOTION_DDOT = 0

CCSDS_OMM_VERS = 2.0
CREATION_DATE  = 
ORIGINATOR     = 

OBJECT_NAME    = COSMOS 1975
OBJECT_ID      = 1988-093A
CENTER_NAME    = EARTH
REF_FRAME      = TEME
TIME_SYSTEM    = UTC
MEAN_ELEMENT_THEORY = SGP/SGP4

EPOCH          = 2025-12-29T11:53:32.127072
MEAN_MOTION    = 15.26729434
ECCENTRICITY   = .0012853
INCLINATION    = 82.5194
RA_OF_ASC_NODE = 188.0511
ARG_OF_PERICENTER = 60.0962
MEAN_ANOMALY   = 300.1551

EPHEMERIS_TYPE = 0
CLASSIFICATION_TYPE = U
NORAD_CAT_ID   = 19573
ELEMENT_SET_NO = 999
REV_AT_EPOCH   = 869
BSTAR          = .44427E-3
MEAN_MOTION_DOT = .11738E-3
MEAN_MOTION_DDOT = 0

CCSDS_OMM_VERS = 2.0
CREATION_DATE  = 
ORIGINATOR     = 

OBJECT_NAME    = SL-14 R/B
OBJECT_ID      = 1988-093B
CENTER_NAME    = EARTH
REF_FRAME      = TEME
TIME_SYSTEM    = UTC
MEAN_ELEMENT_THEORY = SGP/SGP4

EPOCH          = 2025-12-29T18:12:33.192000
MEAN_MOTION    = 14.85569715
ECCENTRICITY   = .0019227
INCLINATION    = 82.5320
RA_OF_ASC_NODE = 107.6971
ARG_OF_PERICENTER = 269.4903
MEAN_ANOMALY   = 203.9016

EPHEMERIS_TYPE = 0
CLASSIFICATION_TYPE = U
NORAD_CAT_ID   = 19574
ELEMENT_SET_NO = 999
REV_AT_EPOCH   = 99065
BSTAR          = .89654E-4
MEAN_MOTION_DOT = .801E-5
MEAN_MOTION_DDOT = 0

CCSDS_OMM_VERS = 2.0
CREATION_DATE  = 
ORIGINATOR     = 

OBJECT_NAME    = SL-16 R/B
OBJECT_ID      = 1988-102B
CENTER_NAME    = EARTH
REF_FRAME      = TEME
TIME_SYSTEM    = UTC
MEAN_ELEMENT_THEORY = SGP/SGP4

EPOCH          = 2025-12-29T20:02:07.594368
MEAN_MOTION    = 14.16142927
ECCENTRICITY   = .0012075
INCLINATION    = 71.0006
RA_OF_ASC_NODE = 298.4737
ARG_OF_PERICENTER = 122.5042
MEAN_ANOMALY   = 237.7250

EPHEMERIS_TYPE = 0
CLASSIFICATION_TYPE = U
NORAD_CAT_ID   = 19650
ELEMENT_SET_NO = 999
REV_AT_EPOCH   = 91700
BSTAR          = -.24106E-4
MEAN_MOTION_DOT = -.95E-6
MEAN_MOTION_DDOT = 0

CCSDS_OMM_VERS = 2.0
CREATION_DATE  = 
ORIGINATOR     = 

OBJECT_NAME    = INTERCOSMOS 24
OBJECT_ID      = 1989-080A
CENTER_NAME    = EARTH
REF_FRAME      = TEME
TIME_SYSTEM    = UTC
MEAN_ELEMENT_THEORY = SGP/SGP4

EPOCH          = 2025-12-29T19:47:27.950784
MEAN_MOTION    = 12.59467740
ECCENTRICITY   = .1189007
INCLINATION    = 82.6062
RA_OF_ASC_NODE = 149.8460
ARG_OF_PERICENTER = 94.9051
MEAN_ANOMALY   = 278.8535

EPHEMERIS_TYPE = 0
CLASSIFICATION_TYPE = U
NORAD_CAT_ID   = 20261
ELEMENT_SET_NO = 999
REV_AT_EPOCH   = 65800
BSTAR          = .24083E-3
MEAN_MOTION_DOT = .849E-5
MEAN_MOTION_DDOT = 0

CCSDS_OMM_VERS = 2.0
CREATION_DATE  = 
ORIGINATOR     = 

OBJECT_NAME    = SL-14 R/B
OBJECT_ID      = 1989-080C
CENTER_NAME    = EARTH
REF_FRAME      = TEME
TIME_SYSTEM    = UTC
MEAN_ELEMENT_THEORY = SGP/SGP4

EPOCH          = 2025-12-29T20:46:05.661120
MEAN_MOTION    = 12.50427091
ECCENTRICITY   = .1230294
INCLINATION    = 82.5911
RA_OF_ASC_NODE = 218.0258
ARG_OF_PERICENTER = 344.4531
MEAN_ANOMALY   = 12.1711

EPHEMERIS_TYPE = 0
CLASSIFICATION_TYPE = U
NORAD_CAT_ID   = 20262
ELEMENT_SET_NO = 999
REV_AT_EPOCH   = 65142
BSTAR          = .13229E-3
MEAN_MOTION_DOT = .446E-5
MEAN_MOTION_DDOT = 0

CCSDS_OMM_VERS = 2.0
CREATION_DATE  = 
ORIGINATOR     = 

OBJECT_NAME    = DELTA 1 R/B
OBJECT_ID      = 1989-089B
CENTER_NAME    = EARTH
REF_FRAME      = TEME
TIME_SYSTEM    = UTC
MEAN_ELEMENT_THEORY = SGP/SGP4

EPOCH          = 2025-12-29T12:57:05.880096
MEAN_MOTION    = 14.50587357
ECCENTRICITY   = .0068749
INCLINATION    = 97.0741
RA_OF_ASC_NODE = 217.1139
ARG_OF_PERICENTER = 345.5361
MEAN_ANOMALY   = 14.3868

EPHEMERIS_TYPE = 0
CLASSIFICATION_TYPE = U
NORAD_CAT_ID   = 20323
ELEMENT_SET_NO = 999
REV_AT_EPOCH   = 88556
BSTAR          = .14979E-3
MEAN_MOTION_DOT = .569E-5
MEAN_MOTION_DDOT = 0

CCSDS_OMM_VERS = 2.0
CREATION_DATE  = 
ORIGINATOR     = 

OBJECT_NAME    = ARIANE 40 R/B
OBJECT_ID      = 1990-005H
CENTER_NAME    = EARTH
REF_FRAME      = TEME
TIME_SYSTEM    = UTC
MEAN_ELEMENT_THEORY = SGP/SGP4

EPOCH          = 2025-12-29T18:22:01.684128
MEAN_MOTION    = 14.39811892
ECCENTRICITY   = .0011029
INCLINATION    = 98.3221
RA_OF_ASC_NODE = 61.4603
ARG_OF_PERICENTER = 59.5510
MEAN_ANOMALY   = 300.6767

EPHEMERIS_TYPE = 0
CLASSIFICATION_TYPE = U
NORAD_CAT_ID   = 20443
ELEMENT_SET_NO = 999
REV_AT_EPOCH   = 88274
BSTAR          = .15241E-3
MEAN_MOTION_DOT = .436E-5
MEAN_MOTION_DDOT = 0

