COSMOS 1933             
1 18958U 88020A   25363.37325717  .00007302  00000+0  36521-3 0  9994
2 18958  82.5135 320.4426 0006500  85.9656 274.2321 15.17260064 39564
SL-3 R/B                
1 19046U 88032B   25363.85917631  .00007766  00000+0  37123-3 0  9994
2 19046  97.5093 342.4645 0028266 115.4858 244.9304 15.18929118 41500
SL-16 R/B               
1 19120U 88039B   25363.79918235  .00000014  00000+0  29407-4 0  9994
2 19120  71.0124 216.3284 0019534  87.0742 273.2618 14.19599993948465
COSMOS 1953             
1 19210U 88050A   25363.34859606  .00008063  00000+0  30114-3 0  9992
2 19210  82.5080 228.9139 0012535  18.6006 341.5688 15.27141359 27045
SL-8 R/B                
1 19257U 88053B   25363.78382565  .00000385  00000+0  13315-3 0  9992
2 19257  74.0463 241.3079 0018991  79.0080 346.5649 14.38870599966549
COSMOS 1975             
1 19573U 88093A   25363.49551073  .00011738  00000+0  44427-3 0  9999
2 19573  82.5194 188.0511 0012853  60.0962 300.1551 15.26729434  8693
SL-14 R/B               
1 19574U 88093B   25363.75871750  .00000801  00000+0  89654-4 0  9997
2 19574  82.5320 107.6971 0019227 269.4903 203.9016 14.85569715990654
SL-16 R/B               
1 19650U 88102B   25363.83481012 -.00000095  00000+0 -24106-4 0  9998
2 19650  71.0006 298.4737 0012075 122.5042 237.7250 14.16142927917008
INTERCOSMOS 24          
1 20261U 89080A   25363.82462906  .00000849  00000+0  24083-3 0  9992
2 20261  82.6062 149.8460 1189007  94.9051 278.8535 12.59467740658005
SL-14 R/B               
1 20262U 89080C   25363.86534330  .00000446  00000+0  13229-3 0  9991
2 20262  82.5911 218.0258 1230294 344.4531  12.1711 12.50427091651423
DELTA 1 R/B             
1 20323U 89089B   25363.53965139  .00000569  00000+0  14979-3 0  9996
2 20323  97.0741 217.1139 0068749 345.5361  14.3868 14.50587357885562
ARIANE 40 R/B           
1 20443U 90005H   25363.76529727  .00000436  00000+0  15241-3 0  9999
2 20443  98.3221  61.4603 0011029  59.5510 300.6767 14.39811892882742
